[{"OBJECT_NAME":"ICEYE-X30","OBJECT_ID":"2023-084R","EPOCH":"2026-03-09T21:18:40.033440","MEAN_MOTION":15.72701856,"ECCENTRICITY":0.00049319,"INCLINATION":97.5707,"RA_OF_ASC_NODE":220.1726,"ARG_OF_PERICENTER":282.9335,"MEAN_ANOMALY":77.1377,"EPHEMERIS_TYPE":0,"CLASSIFICATION_TYPE":"U","NORAD_CAT_ID":56947,"ELEMENT_SET_NO":999,"REV_AT_EPOCH":15325,"BSTAR":0.00083938221,"MEAN_MOTION_DOT":0.00114026,"MEAN_MOTION_DDOT":0},{"OBJECT_NAME":"STARLINK-11513 [DTC]","OBJECT_ID":"2025-008C","EPOCH":"2026-03-09T13:30:42.645312","MEAN_MOTION":15.71070543,"ECCENTRICITY":0.0002069,"INCLINATION":42.9992,"RA_OF_ASC_NODE":126.9885,"ARG_OF_PERICENTER":272.1862,"MEAN_ANOMALY":87.8769,"EPHEMERIS_TYPE":0,"CLASSIFICATION_TYPE":"U","NORAD_CAT_ID":62589,"ELEMENT_SET_NO":999,"REV_AT_EPOCH":6609,"BSTAR":0.0018421,"MEAN_MOTION_DOT":0.00245393,"MEAN_MOTION_DDOT":0}]
